start=new Date('2022-01-24T00:00:00.000Z').valueOf();
sats=[{"TIME_SYSTEM":"UTC","REF_FRAME":"TEME","ECCENTRICITY":"0.00013890","PERIAPSIS":"348.738","PERIOD":"91.531","BSTAR":"-0.00032053000000","EPHEMERIS_TYPE":"0","TLE_LINE1":"1 50823U 22001W   22023.91667824 -.00045422  00000-0 -32053-3 0  9990","ARG_OF_PERICENTER":"50.2951","LAUNCH_DATE":"2022-01-06","SEMIMAJOR_AXIS":"6727.807","INCLINATION":"53.2173","MEAN_MOTION_DOT":"-0.00045422","OBJECT_NAME":"STARLINK-3334","SITE":"AFETR","TLE_LINE2":"2 50823  53.2173 114.8231 0001389  50.2951 166.1513 15.73230830  3990","COUNTRY_CODE":"US","MEAN_MOTION":"15.73230830","NORAD_CAT_ID":"50823","CLASSIFICATION_TYPE":"U","CENTER_NAME":"EARTH","MEAN_MOTION_DDOT":"0.0000000000000","REV_AT_EPOCH":"399","DECAY_DATE":null,"GP_ID":"194472621","OBJECT_TYPE":"PAYLOAD","RA_OF_ASC_NODE":"114.8231","MEAN_ANOMALY":"166.1513","OBJECT_ID":"2022-001W","FILE":"3281162","RCS_SIZE":"LARGE","ELEMENT_SET_NO":"999","APOAPSIS":"350.607","EPOCH":"2022-01-23T22:00:00.999936","MEAN_ELEMENT_THEORY":"SGP4"},{"MEAN_ANOMALY":"161.2920","APOAPSIS":"350.328","RCS_SIZE":"LARGE","EPOCH":"2022-01-23T22:00:00.999936","ELEMENT_SET_NO":"999","MEAN_ELEMENT_THEORY":"SGP4","OBJECT_ID":"2022-001X","FILE":"3281162","MEAN_MOTION_DDOT":"0.0000000000000","REV_AT_EPOCH":"398","OBJECT_TYPE":"PAYLOAD","RA_OF_ASC_NODE":"114.8100","DECAY_DATE":null,"GP_ID":"194472125","COUNTRY_CODE":"US","MEAN_MOTION":"15.73296120","NORAD_CAT_ID":"50824","CENTER_NAME":"EARTH","CLASSIFICATION_TYPE":"U","SITE":"AFETR","OBJECT_NAME":"STARLINK-3340","TLE_LINE2":"2 50824  53.2174 114.8100 0001252  61.5076 161.2920 15.73296120  3980","INCLINATION":"53.2174","MEAN_MOTION_DOT":"-0.00144605","TLE_LINE1":"1 50824U 22001X   22023.91667824 -.00144605  00000-0 -10394-2 0  9997","ARG_OF_PERICENTER":"61.5076","EPHEMERIS_TYPE":"0","SEMIMAJOR_AXIS":"6727.621","LAUNCH_DATE":"2022-01-06","PERIAPSIS":"348.644","PERIOD":"91.528","BSTAR":"-0.00103940000000","TIME_SYSTEM":"UTC","REF_FRAME":"TEME","ECCENTRICITY":"0.00012520"},{"INCLINATION":"53.2174","MEAN_MOTION_DOT":"-0.00119529","ARG_OF_PERICENTER":"53.3900","TLE_LINE1":"1 50825U 22001Y   22023.91667824 -.00119529  00000-0 -85645-3 0  9997","EPHEMERIS_TYPE":"0","SEMIMAJOR_AXIS":"6727.670","LAUNCH_DATE":"2022-01-06","PERIAPSIS":"348.619","BSTAR":"-0.00085645000000","PERIOD":"91.529","TIME_SYSTEM":"UTC","ECCENTRICITY":"0.00013610","REF_FRAME":"TEME","MEAN_ANOMALY":"168.1413","MEAN_ELEMENT_THEORY":"SGP4","RCS_SIZE":"LARGE","EPOCH":"2022-01-23T22:00:00.999936","APOAPSIS":"350.450","ELEMENT_SET_NO":"999","FILE":"3281152","OBJECT_ID":"2022-001Y","REV_AT_EPOCH":"398","MEAN_MOTION_DDOT":"0.0000000000000","RA_OF_ASC_NODE":"114.8126","OBJECT_TYPE":"PAYLOAD","GP_ID":"194472627","DECAY_DATE":null,"NORAD_CAT_ID":"50825","MEAN_MOTION":"15.73279150","COUNTRY_CODE":"US","CLASSIFICATION_TYPE":"U","CENTER_NAME":"EARTH","SITE":"AFETR","OBJECT_NAME":"STARLINK-3332","TLE_LINE2":"2 50825  53.2174 114.8126 0001361  53.3900 168.1413 15.73279150  3982"},{"PERIAPSIS":"346.049","PERIOD":"91.481","BSTAR":"-0.00619850000000","TIME_SYSTEM":"UTC","REF_FRAME":"TEME","ECCENTRICITY":"0.00017350","INCLINATION":"53.2174","MEAN_MOTION_DOT":"-0.00821399","EPHEMERIS_TYPE":"0","TLE_LINE1":"1 50826U 22001Z   22023.58334491 -.00821399  00000-0 -61985-2 0  9997","ARG_OF_PERICENTER":"35.4396","LAUNCH_DATE":"2022-01-06","SEMIMAJOR_AXIS":"6725.350","MEAN_MOTION":"15.74092972","COUNTRY_CODE":"US","NORAD_CAT_ID":"50826","CLASSIFICATION_TYPE":"U","CENTER_NAME":"EARTH","OBJECT_NAME":"STARLINK-3337","SITE":"AFETR","TLE_LINE2":"2 50826  53.2174 116.4569 0001735  35.4396 100.2264 15.74092972  3197","MEAN_ANOMALY":"100.2264","OBJECT_ID":"2022-001Z","FILE":"3280923","RCS_SIZE":"LARGE","APOAPSIS":"348.382","EPOCH":"2022-01-23T14:00:01.000224","ELEMENT_SET_NO":"999","MEAN_ELEMENT_THEORY":"SGP4","MEAN_MOTION_DDOT":"0.0000000000000","REV_AT_EPOCH":"319","DECAY_DATE":null,"GP_ID":"194467410","OBJECT_TYPE":"PAYLOAD","RA_OF_ASC_NODE":"116.4569"},{"REF_FRAME":"TEME","ECCENTRICITY":"0.00011960","TIME_SYSTEM":"UTC","PERIOD":"91.530","BSTAR":"-0.00061184000000","PERIAPSIS":"348.793","SEMIMAJOR_AXIS":"6727.733","LAUNCH_DATE":"2022-01-06","TLE_LINE1":"1 50827U 22001AA  22023.91667824 -.00085823  00000-0 -61184-3 0  9990","ARG_OF_PERICENTER":"68.6678","EPHEMERIS_TYPE":"0","MEAN_MOTION_DOT":"-0.00085823","INCLINATION":"53.2173","TLE_LINE2":"2 50827  53.2173 114.8165 0001196  68.6678 150.9590 15.73256872  3984","SITE":"AFETR","OBJECT_NAME":"STARLINK-3329","CLASSIFICATION_TYPE":"U","CENTER_NAME":"EARTH","MEAN_MOTION":"15.73256872","COUNTRY_CODE":"US","NORAD_CAT_ID":"50827","OBJECT_TYPE":"PAYLOAD","RA_OF_ASC_NODE":"114.8165","DECAY_DATE":null,"GP_ID":"194472146","MEAN_MOTION_DDOT":"0.0000000000000","REV_AT_EPOCH":"398","ELEMENT_SET_NO":"999","RCS_SIZE":"LARGE","APOAPSIS":"350.403","EPOCH":"2022-01-23T22:00:00.999936","MEAN_ELEMENT_THEORY":"SGP4","OBJECT_ID":"2022-001AA","FILE":"3281153","MEAN_ANOMALY":"150.9590"},{"INCLINATION":"53.2174","MEAN_MOTION_DOT":"-0.00821904","ARG_OF_PERICENTER":"44.4523","TLE_LINE1":"1 50828U 22001AB  22023.58334491 -.00821904  00000-0 -61972-2 0  9997","EPHEMERIS_TYPE":"0","SEMIMAJOR_AXIS":"6725.287","LAUNCH_DATE":"2022-01-06","PERIAPSIS":"346.131","BSTAR":"-0.00619720000000","PERIOD":"91.480","TIME_SYSTEM":"UTC","ECCENTRICITY":"0.00015180","REF_FRAME":"TEME","MEAN_ANOMALY":"92.4508","MEAN_ELEMENT_THEORY":"SGP4","RCS_SIZE":"LARGE","APOAPSIS":"348.173","EPOCH":"2022-01-23T14:00:01.000224","ELEMENT_SET_NO":"999","FILE":"3280923","OBJECT_ID":"2022-001AB","REV_AT_EPOCH":"319","MEAN_MOTION_DDOT":"0.0000000000000","RA_OF_ASC_NODE":"116.4543","OBJECT_TYPE":"PAYLOAD","GP_ID":"194467109","DECAY_DATE":null,"NORAD_CAT_ID":"50828","MEAN_MOTION":"15.74115276","COUNTRY_CODE":"US","CLASSIFICATION_TYPE":"U","CENTER_NAME":"EARTH","SITE":"AFETR","OBJECT_NAME":"STARLINK-3290","TLE_LINE2":"2 50828  53.2174 116.4543 0001518  44.4523  92.4508 15.74115276  3198"},{"CENTER_NAME":"EARTH","CLASSIFICATION_TYPE":"U","NORAD_CAT_ID":"50829","COUNTRY_CODE":"US","MEAN_MOTION":"15.73244981","TLE_LINE2":"2 50829  53.2173 114.8192 0001322  55.5687 162.7868 15.73244981  3989","OBJECT_NAME":"STARLINK-3294","SITE":"AFETR","FILE":"3281154","OBJECT_ID":"2022-001AC","MEAN_ELEMENT_THEORY":"SGP4","RCS_SIZE":"LARGE","APOAPSIS":"350.521","EPOCH":"2022-01-23T22:00:00.999936","ELEMENT_SET_NO":"999","MEAN_ANOMALY":"162.7868","GP_ID":"194472662","DECAY_DATE":null,"RA_OF_ASC_NODE":"114.8192","OBJECT_TYPE":"PAYLOAD","REV_AT_EPOCH":"398","MEAN_MOTION_DDOT":"0.0000000000000","BSTAR":"-0.00047982000000","PERIOD":"91.531","PERIAPSIS":"348.743","ECCENTRICITY":"0.00013220","REF_FRAME":"TEME","TIME_SYSTEM":"UTC","MEAN_MOTION_DOT":"-0.00067550","INCLINATION":"53.2173","LAUNCH_DATE":"2022-01-06","SEMIMAJOR_AXIS":"6727.767","EPHEMERIS_TYPE":"0","ARG_OF_PERICENTER":"55.5687","TLE_LINE1":"1 50829U 22001AC  22023.91667824 -.00067550  00000-0 -47982-3 0  9999"},{"PERIOD":"91.523","BSTAR":"-0.00181130000000","PERIAPSIS":"348.414","REF_FRAME":"TEME","ECCENTRICITY":"0.00012800","TIME_SYSTEM":"UTC","MEAN_MOTION_DOT":"-0.00249249","INCLINATION":"53.2174","LAUNCH_DATE":"2022-01-06","SEMIMAJOR_AXIS":"6727.410","EPHEMERIS_TYPE":"0","TLE_LINE1":"1 50830U 22001AD  22023.91667824 -.00249249  00000-0 -18113-2 0  9991","ARG_OF_PERICENTER":"60.1030","CENTER_NAME":"EARTH","CLASSIFICATION_TYPE":"U","COUNTRY_CODE":"US","MEAN_MOTION":"15.73370071","NORAD_CAT_ID":"50830","TLE_LINE2":"2 50830  53.2174 114.8008 0001280  60.1030 167.1261 15.73370071  3981","OBJECT_NAME":"STARLINK-3278","SITE":"AFETR","OBJECT_ID":"2022-001AD","FILE":"3281154","RCS_SIZE":"LARGE","APOAPSIS":"350.136","EPOCH":"2022-01-23T22:00:00.999936","ELEMENT_SET_NO":"999","MEAN_ELEMENT_THEORY":"SGP4","MEAN_ANOMALY":"167.1261","DECAY_DATE":null,"GP_ID":"194472158","OBJECT_TYPE":"PAYLOAD","RA_OF_ASC_NODE":"114.8008","MEAN_MOTION_DDOT":"0.0000000000000","REV_AT_EPOCH":"398"},{"TIME_SYSTEM":"UTC","ECCENTRICITY":"0.00017860","REF_FRAME":"TEME","PERIAPSIS":"345.983","BSTAR":"-0.00619790000000","PERIOD":"91.481","ARG_OF_PERICENTER":"33.3499","TLE_LINE1":"1 50831U 22001AE  22023.58334491 -.00821700  00000-0 -61979-2 0  9992","EPHEMERIS_TYPE":"0","SEMIMAJOR_AXIS":"6725.319","LAUNCH_DATE":"2022-01-06","INCLINATION":"53.2174","MEAN_MOTION_DOT":"-0.00821700","SITE":"AFETR","OBJECT_NAME":"STARLINK-3299","TLE_LINE2":"2 50831  53.2174 116.4557 0001786  33.3499 102.9350 15.74103980  3194","NORAD_CAT_ID":"50831","MEAN_MOTION":"15.74103980","COUNTRY_CODE":"US","CENTER_NAME":"EARTH","CLASSIFICATION_TYPE":"U","REV_AT_EPOCH":"319","MEAN_MOTION_DDOT":"0.0000000000000","RA_OF_ASC_NODE":"116.4557","OBJECT_TYPE":"PAYLOAD","GP_ID":"194467299","DECAY_DATE":null,"MEAN_ANOMALY":"102.9350","MEAN_ELEMENT_THEORY":"SGP4","ELEMENT_SET_NO":"999","RCS_SIZE":"LARGE","APOAPSIS":"348.385","EPOCH":"2022-01-23T14:00:01.000224","FILE":"3280923","OBJECT_ID":"2022-001AE"},{"LAUNCH_DATE":"2022-01-06","SEMIMAJOR_AXIS":"6725.228","EPHEMERIS_TYPE":"0","TLE_LINE1":"1 50832U 22001AF  22023.58334491 -.00821906  00000-0 -61906-2 0  9991","ARG_OF_PERICENTER":"29.6706","MEAN_MOTION_DOT":"-0.00821906","INCLINATION":"53.2174","REF_FRAME":"TEME","ECCENTRICITY":"0.00019230","TIME_SYSTEM":"UTC","PERIOD":"91.479","BSTAR":"-0.00619060000000","PERIAPSIS":"345.799","DECAY_DATE":null,"GP_ID":"194467351","OBJECT_TYPE":"PAYLOAD","RA_OF_ASC_NODE":"116.4518","MEAN_MOTION_DDOT":"0.0000000000000","REV_AT_EPOCH":"319","OBJECT_ID":"2022-001AF","FILE":"3280923","RCS_SIZE":"LARGE","APOAPSIS":"348.386","EPOCH":"2022-01-23T14:00:01.000224","ELEMENT_SET_NO":"999","MEAN_ELEMENT_THEORY":"SGP4","MEAN_ANOMALY":"108.4709","TLE_LINE2":"2 50832  53.2174 116.4518 0001923  29.6706 108.4709 15.74136057  3194","OBJECT_NAME":"STARLINK-3328","SITE":"AFETR","CENTER_NAME":"EARTH","CLASSIFICATION_TYPE":"U","MEAN_MOTION":"15.74136057","COUNTRY_CODE":"US","NORAD_CAT_ID":"50832"}];
